COSMOS 2228             
1 22286U 92094A   25324.29299375  .00001991  00000+0  17223-3 0  9993
2 22286  82.5176 342.0124 0016754 314.0022  45.9818 14.96582876759699
SL-16 R/B               
1 22566U 93016B   25324.30019191  .00000300  00000+0  17870-3 0  9998
2 22566  71.0075  84.9300 0008651 139.1935 220.9837 14.15286274686694
COSMOS 2242             
1 22626U 93024A   25324.22926944  .00002072  00000+0  18224-3 0  9990
2 22626  82.5208  11.3582 0015235 317.3428  42.6609 14.95977159764022
SL-16 R/B               
1 22803U 93059B   25324.21641202 -.00000082  00000+0 -16695-4 0  9997
2 22803  70.9902 241.9794 0016636   8.9876 351.1542 14.17208887664025
ARIANE 40 R/B           
1 22830U 93061H   25324.20155177  .00000294  00000+0  12387-3 0  9996
2 22830  98.5105  30.1389 0009754 245.4848 114.5319 14.32780894678426
COSMOS 2278             
1 23087U 94023A   25324.25749156  .00000362  00000+0  21389-3 0  9999
2 23087  71.0555  44.0452 0009631 208.8419 151.2172 14.14345320629334
SL-16 R/B               
1 23088U 94023B   25324.21255685 -.00000104  00000+0 -28914-4 0  9993
2 23088  70.9988 300.7940 0001165 136.7737 223.3477 14.14991241630603
SL-16 R/B               
1 23343U 94074B   25324.08108049  .00000567  00000+0  82996-4 0  9990
2 23343  97.7230 354.2836 0005810 207.0130 207.4288 14.79252515671043
SL-16 R/B               
1 23405U 94077B   25324.16618658 -.00000051  00000+0 -16144-5 0  9996
2 23405  70.9829 222.9009 0004404 302.5298  57.5399 14.15548121600732
ARIANE 40+ R/B          
1 23561U 95021B   25324.21981898  .00000380  00000+0  13539-3 0  9990
2 23561  98.4679  32.0780 0007860 108.3866 319.0325 14.39670605603491
SL-16 R/B               
1 23705U 95058B   25324.30907638 -.00000220  00000+0 -88002-4 0  9993
2 23705  71.0226  49.8962 0014975 283.8935  76.0522 14.15475387552378
SL-16 R/B               
1 24298U 96051B   25324.25044481 -.00000028  00000+0  11684-4 0  9994
2 24298  70.7609  46.8852 0018559 289.4492  70.4622 14.12393829506199
