CCSDS_OMM_VERS = 2.0
CREATION_DATE  = 
ORIGINATOR     = 

OBJECT_NAME    = COSMOS 2228
OBJECT_ID      = 1992-094A
CENTER_NAME    = EARTH
REF_FRAME      = TEME
TIME_SYSTEM    = UTC
MEAN_ELEMENT_THEORY = SGP/SGP4

EPOCH          = 2025-11-20T07:01:54.660000
MEAN_MOTION    = 14.96582876
ECCENTRICITY   = .00167542
INCLINATION    = 82.5176
RA_OF_ASC_NODE = 342.0124
ARG_OF_PERICENTER = 314.0022
MEAN_ANOMALY   = 45.9818

EPHEMERIS_TYPE = 0
CLASSIFICATION_TYPE = U
NORAD_CAT_ID   = 22286
ELEMENT_SET_NO = 999
REV_AT_EPOCH   = 75969
BSTAR          = .172235E-3
MEAN_MOTION_DOT = .1991E-4
MEAN_MOTION_DDOT = 0

CCSDS_OMM_VERS = 2.0
CREATION_DATE  = 
ORIGINATOR     = 

OBJECT_NAME    = SL-16 R/B
OBJECT_ID      = 1993-016B
CENTER_NAME    = EARTH
REF_FRAME      = TEME
TIME_SYSTEM    = UTC
MEAN_ELEMENT_THEORY = SGP/SGP4

EPOCH          = 2025-11-20T07:12:16.581024
MEAN_MOTION    = 14.15286274
ECCENTRICITY   = .00086513
INCLINATION    = 71.0075
RA_OF_ASC_NODE = 84.9300
ARG_OF_PERICENTER = 139.1935
MEAN_ANOMALY   = 220.9837

EPHEMERIS_TYPE = 0
CLASSIFICATION_TYPE = U
NORAD_CAT_ID   = 22566
ELEMENT_SET_NO = 999
REV_AT_EPOCH   = 68669
BSTAR          = .17869773E-3
MEAN_MOTION_DOT = .3E-5
MEAN_MOTION_DDOT = 0

CCSDS_OMM_VERS = 2.0
CREATION_DATE  = 
ORIGINATOR     = 

OBJECT_NAME    = COSMOS 2242
OBJECT_ID      = 1993-024A
CENTER_NAME    = EARTH
REF_FRAME      = TEME
TIME_SYSTEM    = UTC
MEAN_ELEMENT_THEORY = SGP/SGP4

EPOCH          = 2025-11-20T05:30:08.879616
MEAN_MOTION    = 14.95977159
ECCENTRICITY   = .00152353
INCLINATION    = 82.5208
RA_OF_ASC_NODE = 11.3582
ARG_OF_PERICENTER = 317.3428
MEAN_ANOMALY   = 42.6609

EPHEMERIS_TYPE = 0
CLASSIFICATION_TYPE = U
NORAD_CAT_ID   = 22626
ELEMENT_SET_NO = 999
REV_AT_EPOCH   = 76402
BSTAR          = .18223702E-3
MEAN_MOTION_DOT = .2072E-4
MEAN_MOTION_DDOT = 0

CCSDS_OMM_VERS = 2.0
CREATION_DATE  = 
ORIGINATOR     = 

OBJECT_NAME    = SL-16 R/B
OBJECT_ID      = 1993-059B
CENTER_NAME    = EARTH
REF_FRAME      = TEME
TIME_SYSTEM    = UTC
MEAN_ELEMENT_THEORY = SGP/SGP4

EPOCH          = 2025-11-20T05:11:37.998528
MEAN_MOTION    = 14.17208887
ECCENTRICITY   = .00166369
INCLINATION    = 70.9902
RA_OF_ASC_NODE = 241.9794
ARG_OF_PERICENTER = 8.9876
MEAN_ANOMALY   = 351.1542

EPHEMERIS_TYPE = 0
CLASSIFICATION_TYPE = U
NORAD_CAT_ID   = 22803
ELEMENT_SET_NO = 999
REV_AT_EPOCH   = 66402
BSTAR          = -.16695318E-4
MEAN_MOTION_DOT = -.82E-6
MEAN_MOTION_DDOT = 0

CCSDS_OMM_VERS = 2.0
CREATION_DATE  = 
ORIGINATOR     = 

OBJECT_NAME    = ARIANE 40 R/B
OBJECT_ID      = 1993-061H
CENTER_NAME    = EARTH
REF_FRAME      = TEME
TIME_SYSTEM    = UTC
MEAN_ELEMENT_THEORY = SGP/SGP4

EPOCH          = 2025-11-20T04:50:14.072928
MEAN_MOTION    = 14.32780894
ECCENTRICITY   = .00097544
INCLINATION    = 98.5105
RA_OF_ASC_NODE = 30.1389
ARG_OF_PERICENTER = 245.4848
MEAN_ANOMALY   = 114.5319

EPHEMERIS_TYPE = 0
CLASSIFICATION_TYPE = U
NORAD_CAT_ID   = 22830
ELEMENT_SET_NO = 999
REV_AT_EPOCH   = 67842
BSTAR          = .12386807E-3
MEAN_MOTION_DOT = .294E-5
MEAN_MOTION_DDOT = 0

CCSDS_OMM_VERS = 2.0
CREATION_DATE  = 
ORIGINATOR     = 

OBJECT_NAME    = COSMOS 2278
OBJECT_ID      = 1994-023A
CENTER_NAME    = EARTH
REF_FRAME      = TEME
TIME_SYSTEM    = UTC
MEAN_ELEMENT_THEORY = SGP/SGP4

EPOCH          = 2025-11-20T06:10:47.270784
MEAN_MOTION    = 14.14345320
ECCENTRICITY   = .00096311
INCLINATION    = 71.0555
RA_OF_ASC_NODE = 44.0452
ARG_OF_PERICENTER = 208.8419
MEAN_ANOMALY   = 151.2172

EPHEMERIS_TYPE = 0
CLASSIFICATION_TYPE = U
NORAD_CAT_ID   = 23087
ELEMENT_SET_NO = 999
REV_AT_EPOCH   = 62933
BSTAR          = .21389251E-3
MEAN_MOTION_DOT = .362E-5
MEAN_MOTION_DDOT = 0

CCSDS_OMM_VERS = 2.0
CREATION_DATE  = 
ORIGINATOR     = 

OBJECT_NAME    = SL-16 R/B
OBJECT_ID      = 1994-023B
CENTER_NAME    = EARTH
REF_FRAME      = TEME
TIME_SYSTEM    = UTC
MEAN_ELEMENT_THEORY = SGP/SGP4

EPOCH          = 2025-11-20T05:06:04.911840
MEAN_MOTION    = 14.14991241
ECCENTRICITY   = .00011654
INCLINATION    = 70.9988
RA_OF_ASC_NODE = 300.7940
ARG_OF_PERICENTER = 136.7737
MEAN_ANOMALY   = 223.3477

EPHEMERIS_TYPE = 0
CLASSIFICATION_TYPE = U
NORAD_CAT_ID   = 23088
ELEMENT_SET_NO = 999
REV_AT_EPOCH   = 63060
BSTAR          = -.28913712E-4
MEAN_MOTION_DOT = -.104E-5
MEAN_MOTION_DDOT = 0

CCSDS_OMM_VERS = 2.0
CREATION_DATE  = 
ORIGINATOR     = 

OBJECT_NAME    = SL-16 R/B
OBJECT_ID      = 1994-074B
CENTER_NAME    = EARTH
REF_FRAME      = TEME
TIME_SYSTEM    = UTC
MEAN_ELEMENT_THEORY = SGP/SGP4

EPOCH          = 2025-11-20T01:56:45.354336
MEAN_MOTION    = 14.79252515
ECCENTRICITY   = .00058108
INCLINATION    = 97.7230
RA_OF_ASC_NODE = 354.2836
ARG_OF_PERICENTER = 207.0130
MEAN_ANOMALY   = 207.4288

EPHEMERIS_TYPE = 0
CLASSIFICATION_TYPE = U
NORAD_CAT_ID   = 23343
ELEMENT_SET_NO = 999
REV_AT_EPOCH   = 67104
BSTAR          = .82995568E-4
MEAN_MOTION_DOT = .567E-5
MEAN_MOTION_DDOT = 0

CCSDS_OMM_VERS = 2.0
CREATION_DATE  = 
ORIGINATOR     = 

OBJECT_NAME    = SL-16 R/B
OBJECT_ID      = 1994-077B
CENTER_NAME    = EARTH
REF_FRAME      = TEME
TIME_SYSTEM    = UTC
MEAN_ELEMENT_THEORY = SGP/SGP4

EPOCH          = 2025-11-20T03:59:18.520512
MEAN_MOTION    = 14.15548121
ECCENTRICITY   = .00044047
INCLINATION    = 70.9829
RA_OF_ASC_NODE = 222.9009
ARG_OF_PERICENTER = 302.5298
MEAN_ANOMALY   = 57.5399

EPHEMERIS_TYPE = 0
CLASSIFICATION_TYPE = U
NORAD_CAT_ID   = 23405
ELEMENT_SET_NO = 999
REV_AT_EPOCH   = 60073
BSTAR          = -.1614415E-5
MEAN_MOTION_DOT = -.51E-6
MEAN_MOTION_DDOT = 0

CCSDS_OMM_VERS = 2.0
CREATION_DATE  = 
ORIGINATOR     = 

OBJECT_NAME    = ARIANE 40+ R/B
OBJECT_ID      = 1995-021B
CENTER_NAME    = EARTH
REF_FRAME      = TEME
TIME_SYSTEM    = UTC
MEAN_ELEMENT_THEORY = SGP/SGP4

EPOCH          = 2025-11-20T05:16:32.359872
MEAN_MOTION    = 14.39670605
ECCENTRICITY   = .00078609
INCLINATION    = 98.4679
RA_OF_ASC_NODE = 32.0780
ARG_OF_PERICENTER = 108.3866
MEAN_ANOMALY   = 319.0325

EPHEMERIS_TYPE = 0
CLASSIFICATION_TYPE = U
NORAD_CAT_ID   = 23561
ELEMENT_SET_NO = 999
REV_AT_EPOCH   = 60349
BSTAR          = .13539058E-3
MEAN_MOTION_DOT = .38E-5
MEAN_MOTION_DDOT = 0

CCSDS_OMM_VERS = 2.0
CREATION_DATE  = 
ORIGINATOR     = 

OBJECT_NAME    = SL-16 R/B
OBJECT_ID      = 1995-058B
CENTER_NAME    = EARTH
REF_FRAME      = TEME
TIME_SYSTEM    = UTC
MEAN_ELEMENT_THEORY = SGP/SGP4

EPOCH          = 2025-11-20T07:25:04.199232
MEAN_MOTION    = 14.15475387
ECCENTRICITY   = .00149754
INCLINATION    = 71.0226
RA_OF_ASC_NODE = 49.8962
ARG_OF_PERICENTER = 283.8935
MEAN_ANOMALY   = 76.0522

EPHEMERIS_TYPE = 0
CLASSIFICATION_TYPE = U
NORAD_CAT_ID   = 23705
ELEMENT_SET_NO = 999
REV_AT_EPOCH   = 55237
BSTAR          = -.88002247E-4
MEAN_MOTION_DOT = -.22E-5
MEAN_MOTION_DDOT = 0

CCSDS_OMM_VERS = 2.0
CREATION_DATE  = 
ORIGINATOR     = 

OBJECT_NAME    = SL-16 R/B
OBJECT_ID      = 1996-051B
CENTER_NAME    = EARTH
REF_FRAME      = TEME
TIME_SYSTEM    = UTC
MEAN_ELEMENT_THEORY = SGP/SGP4

EPOCH          = 2025-11-20T06:00:38.431584
MEAN_MOTION    = 14.12393829
ECCENTRICITY   = .0018559
INCLINATION    = 70.7609
RA_OF_ASC_NODE = 46.8852
ARG_OF_PERICENTER = 289.4492
MEAN_ANOMALY   = 70.4622

EPHEMERIS_TYPE = 0
CLASSIFICATION_TYPE = U
NORAD_CAT_ID   = 24298
ELEMENT_SET_NO = 999
REV_AT_EPOCH   = 50619
BSTAR          = .11683688E-4
MEAN_MOTION_DOT = -.28E-6
MEAN_MOTION_DDOT = 0

